Fsq_Id,Country,Locality,Category,Name,Location,Latitude,Longitude
4be277911dd22d7f7f3094bd,CH,Bern,Museum,Bernisches Historisches Museum Einstein Museum,"Helvetiaplatz 5, 3005 Bern",46.942953,7.449349
4fd49753e4b03121ce7823b6,CH,Bern,Science Museum,Einsteinmuseum,"Helvetiaplatz 5, 3005 Bern",46.943129,7.449336
4ba3c1e5f964a520fe5b38e3,CH,Bern,Museum,Museum für Kommunikation,"Helvetiastrasse 16, 3005 Bern",46.941801,7.450036
4ca58ce1965c9c744881c7fa,CH,Bern,Museum,Naturhistorisches Museum,"Bernastrasse 15, 3005 Bern",46.942141,7.448943
4b4c5125f964a520dfb026e3,CH,Bern,Art Museum,Kunstmuseum Bern,"Hodlerstr. 8-12, 3011 Bern",46.951048,7.443254
4b714a02f964a5209c3f2de3,CH,Bern,Museum,Einstein-Haus,"Kramgasse 49, 3011 Bern",46.947879,7.449927
51544139e4b009ce8702ca55,CH,Bern,Museum,Qin-Ausstellung,"Historisches Museum (Helvetiaplatz), 3000 Bern",46.943627,7.448984
4b60630ef964a5201be329e3,CH,Bern,Art Museum,Zentrum Paul Klee,"Monument im Fruchtland 3, 3006 Bern",46.948958,7.474067
4c7bcb2cdf08a1cdaf73e15d,CH,Bern,Museum,Schweizerisches Alpines Museum,"Helvetiaplatz 4, 3005 Bern",46.944079,7.44829
4b75a688f964a5201d1a2ee3,CH,Bern,Art Museum,Kunsthalle Bern,"Helvetiaplatz 1, 3005 Bern",46.944151,7.449331
5a5b88a508f5216e4378a5b4,CH,,Museum,Klingende Sammlung,,46.948182,7.449276
bac20c40a5aa48b95339f736,CH,Bern,Museum,Claude Haltmeyer ATELIER ZEIT & RAUM,"Herrengasse 21, 3011 Bern",46.946979,7.449586
7f1c2308091e42702eab9353,CH,Bern,Museum,Käfigturm (Prison Tower),"Marktgasse 67, 3003 Bern",46.948055,7.443912
f59fa2c3b42648d8f793bca4,CH,Bern,Museum,Schweiz. Schützenmuseum,"Bernastr. 5, 3005 Bern",46.942871,7.448483
283f522207e34eedb88322ad,CH,Bern,History Museum,"Schweizerisches Schützenmuseum, Bernastrasse 5, 3005 Bern",Bern,46.942871,7.448483
ddbdc4d111c2444d5ffc93a4,CH,Bern,Museum,Adolf Wölfli-Stiftung,"Hodlerstr. 8-12, 3011 Bern",46.950952,7.443361
22ff0ccd84a041f948abe68f,CH,Bern,Museum,Naturforschende Gesellschaft in Bern,"Bernastr. 15, 3005 Bern",46.942102,7.448826
a6307463b8e74fa1f0207cd6,CH,Bern,Museum,Albert Heim-Stiftung für Kynologie,"Bernastr. 15, 3005 Bern",46.942102,7.448826
4d83aa4c8de9721e151b2151,CH,,History Museum,Schützenmuseum,,46.943091,7.445223
50d3244be4b012621b1191cc,CH,,Arts and Entertainment,Bärn,,46.948577,7.440936
4f567a29e4b0579192ea917c,CH,Bern,History Museum,Infothek SBB Historic,"Bollwerk 12, 3011 Bern",46.950944,7.44046
4eedea12a69d8afe6b7f8aa0,CH,Bern,History Museum,Mord und Totschlag. Eine Ausstellung über das Leben,"Ausstellung im historischen Museum, Bern",46.940065,7.451735
4ede127ba17c4dbad12f370a,CH,Bern,Museum,Heilsarmee Museum und Archiv,"Laupenstr. 5, 3008 Bern",46.947103,7.43698
0fb5f1a303824f54d5c74627,CH,Bern,Museum,Verein Palma3,"Dammweg 41, 3013 Bern",46.958729,7.445957
b013b1be5dee420b2d6d0406,CH,Bern,Museum,Cerny Inuit Collection,"Stadtbachstr. 8a, 3012 Bern",46.949022,7.434929
5dcd413b9d134c6ecd746b5c,CH,Bern,Museum,Antikensammlung Bern,"Hallerstr. 12, 3012 Bern",46.952766,7.435194
52b3083e498ec84c26fe4072,CH,,Science Museum,E-Business Hall of Fame,,46.960287,7.444519
510a2ff4e4b0bfb254794c23,CH,,Planetarium,E-Business Museum,,46.961339,7.445728
56c4bea2cd104c234ddc08ea,CH,,Art Museum,Chinese Whispers,,46.949631,7.473831
166f486569be45ee2bbe60f8,CH,Bern,Museum,Kindermuseum Creaviva,"Monument im Fruchtland 3, 3006 Bern",46.94891,7.47412
5375d094498e17c6ada2b1f8,CH,,Science Museum,Tram-museum,,46.937485,7.4324
a88428dbda4a478b3f4d69cb,CH,Bern,Museum,Senn-Stiftung,"Zeughausgasse 18, 3011 Bern",46.94907,7.445265
c642a47f62be48aff87e55ba,CH,Bern,Museum,Museen/Musées BE,"Tannenweg 7, 3012 Bern",46.954983,7.424911
4364929393834036193b360d,CH,Bern,Planetarium,Planet Motors GmbH,"C/o Fintesta GmbH Dählhölzliweg 3, 3005 Bern",46.941851,7.456069
6d3e5a0ea11641d303fda89d,CH,Bern,Museum,talsee AG,"Stauffacherstr. 145, 3014 Bern",46.966737,7.468558
6353df712e1b8366811c1839,CH,Bern,Museum,Jupiterstrasse 40,"Jupiterstr. 40, Bern",46.938047,7.485576
21148cca73024bd34fb303e3,CH,Bern,Museum,Stiftung Psychiatrie- Museum Bern,"Bolligenstr. 111, 3000 Bern",46.965631,7.480607
49d17071cab341edbb0a3b27,CH,Bern,History Museum,Stiftung Bärenpark Bern,Bern,46.933808,7.448783
1525fef39a1245b898a34eb9,CH,Bern,Museum,Artbeat Graphic Design,"Murifeldweg 7, 3006 Bern",46.940112,7.470589
edfcc5d8e8b041a77cfd6eae,CH,Köniz,Museum,Schulmuseum Bern,"Muhlernstr. 9, 3098 Köniz",46.92078,7.413856
3fec9087a387435718c2d1a9,CH,Muri b. Bern,Museum,Z-à-Dire,"Haldenweg 14, 3074 Muri b. Bern",46.923652,7.497247
b1d4c25d8ef747442f10d10a,CH,Worb,Museum,Freiburghaus Martin,"Bollstr. 7, 3076 Worb",46.930908,7.56232
53a3fc20498ea264696a6676,CH,Worb,Museum,Zapfenzieher-Museum,"Enggisteinstr. 3, 3076 Worb",46.930455,7.563554
c30c9530dd264c25cf2319df,CH,Zollikofen,Museum,Rohrer-Marti AG,"Industriestr. 53, 3052 Zollikofen",47.007476,7.466776
4c666121b80abe9a58e2cce5,CH,Worb,History Museum,Schloss Worb,"Schlossstalden, 3076 Worb",46.930358,7.574148
500bddb6e4b0629c8bba3fb8,CH,,Public Art,"""Stein auf Stein""",,46.94405,7.449861
500be9f6e4b06a8f7d05bd22,CH,,Public Art,"""Tanzender Bär""",,46.948139,7.459298
500f8691e4b04a3250c26e2a,CH,,Public Art,"""Chribel""",,46.946155,7.437629
6447c3f693e1856692580eca,CH,,Cultural Center,Japan Information And Cultural Center (JICC),,46.959667,7.439084
5214e0cd11d227044a812cba,CH,,College and University,Konservatorium Bern,,46.948044,7.449014
4e549ca362e1d18443209c0a,CH,Bern,College and University,Montessori Kinderhaus,Bern,46.948942,7.456423
4c691cba897b1b8db148ae17,CH,Bern,College and University,Campus Muristalden,"Muristr. 8, 3006 Bern",46.944288,7.459983
513f1e68e4b05551e5a300b4,CH,Bern,College and University,comperio.ch AG,"Bundesgasse 26, 3011 Bern",46.946496,7.440154
2bb83dd2a36344d6ed18aeed,CH,Bern,College and University,Dodis - Diplomatische Dokumente der Schweiz,"Hallwylstr. 4, 3005 Bern",46.940758,7.447425
516ee8ffe4b002b21cf68ea3,CH,Bern,College and University,Hochschule der Künste Bern,"Zikadenweg 35, 3013 Bern",46.955272,7.460021
5208886d498e3968385c08ea,CH,,College and University,Schule Laubegg,,46.947591,7.465834
def2ffb8912b4b380942e1aa,CH,Bern,College and University,IOP - Institut für Organisation und Personal,Bern,46.953788,7.440385
4bd5b3207b1876b0cb268b86,CH,Bern,College and University,IFA Bern,"Bubenbergplatz 10, 3008 Bern",46.94742,7.437871
4fd86343e4b02579a1850c95,CH,,College and University,Kuppelsaal Uni Bern,,46.950354,7.43811
4e92eb1155037de99d89904a,CH,,College and University,Uni Engehalde,,46.953879,7.439763
4b9bb522f964a520321c36e3,CH,Bern,College and University,HSO Schulen,"Maulbeerstr. 10, 3011 Bern",46.946579,7.436633
4e4ccee145dd4c13ed9fd30f,CH,Bern,College and University,ETH-Rat,3001 Bern,46.945949,7.436301
46103f77b55e4c3226fdc398,CH,Bern,College and University,Entrepreneurs Club Universität Bern (ECUB),"Engehaldestr. 4, 3012 Bern",46.950276,7.436015
503ca728e4b0da80dc3ae26a,CH,Bern,College and University,Tagesschule Lorraine,"Lorrainestr. 33, 3013 Bern",46.958598,7.444337
551170be498e3dfec0caccc7,CH,Bern,College and University,Learning Institute Nachhilfe und Sprachkurse,"Gutenbergstr. 4, 3011 Bern",46.945452,7.435716
5771fe2535a14f4099686f02,CH,Bern,College and University,SOLibri - Studierendenorganisation BFH Soziale Arbeit,Bern,46.952485,7.435094
5021fe60e4b068cff847589e,CH,Bern,College and University,Webedu.Ch,"Effingerstr. 53, 3008 Bern",46.945591,7.428911
50adcc0de4b03c6b1cb7f27c,CH,,College and University,GIBB - Gewerblich-Industrielle Berufsschule Bern,,46.938597,7.431774
500ee7f9e4b048366a669f92,CH,Bern,College and University,Rudolf Steiner Schule,"Melchenbühlweg 14, 3006 Bern",46.948161,7.479843
6f7f20056e404b760c3217fd,CH,Bern,College and University,Universitätssport Bern,"Bremgartenstr. 145, 3012 Bern",46.962019,7.431869
4ea4ff5a02d529c117ad2840,CH,Bern,College and University,Trivadis AG,"Papiermühlestr. 73, 3014 Bern",46.962586,7.463761
50952929e4b075af19151191,CH,,College and University,Turnhalle Dennigkofen,,46.93655,7.487566
523b386a11d2070e249e634d,CH,,College and University,Unterstufe Bremgarten b. Bern,,46.976457,7.438623
4e5288f588775123c0ea21d0,CH,Muri b. Bern,College and University,Schulhaus Horbern,Muri b. Bern,46.93066,7.486899
5033f4f2e4b070220d3510e2,CH,Kehrsatz,College and University,Oberstufe,"Selhofen, 3122 Kehrsatz",46.915496,7.472848
57249a4a498e8780a4ad5cbe,CH,,College and University,Schwabgut,,46.944778,7.397301
4e1dca412271ff848fe9ffd3,CH,Köniz,College and University,Oberstufenzentrum Köniz,"Schwarzenburgstr. 321, 3098 Köniz",46.91962,7.4136
2288129602ee4af0f344a9b7,CH,Bern,College and University,HKB International,"Fellerstr. 11, Bern",46.946667,7.391231
bec55af9f83f48ec3ef486a6,CH,Bern,College and University,HKB / BA Visuelle Kommunikation,"Fellerstr. 11, Bern",46.946667,7.391231
ebcffc5180e148b1ff54d2be,CH,Bern,College and University,HKB / MA Communication Design,"Fellerstr. 11, 3027 Bern",46.946926,7.391147
4f56385fe4b00e891e49938b,CH,Bern,College and University,Tagesschule Tscharnergut,"Fellerstr. 20, 3027 Bern",46.947519,7.390688
4f3bf7bde4b0f7c8c765c39c,CH,Bern,College and University,Schulhaus Bethlehemacker,"Kornweg, 3027 Bern",46.953928,7.387436
50b5c284e4b075ec627cee2d,CH,,College and University,Schweizerisches Rotes Kreuz Bernstrasse,,46.997769,7.460421
4e77693ad22d80eb3410478a,CH,,College and University,QCM Belp,,46.902596,7.502457
4ec8aab38b81dcfdc4eaccad,CH,Moosseedorf,College and University,Schulanlage Staffel,"Schulhausstr. 23, 3302 Moosseedorf",47.011552,7.480394
4fae0834e4b08594933012d4,CH,Belp,College and University,"Schweizerische Schule für Aromatherapie, Sfa","Rubigenstr. 35, 3123 Belp",46.892675,7.502356
4d5a309df8ff236af663d34a,CH,,College and University,Oberstufenzentrum Belp,,46.886292,7.503067
4fb8ea57e4b0e01e9ff7ba99,CH,Belp,College and University,Mühlematt,"Mühlestr. 6 (Husmattstrasse), 3123 Belp",46.889082,7.502019
4ff4639ee4b009b18df371b5,CH,,College and University,Schulhaus Lee,,47.023659,7.499862
eefdd3b57c844df1a7298bae,CH,Bern,College and University,Hochschule Für Musik,"Papiermühlestr. 13a, 3011 Bern",46.955653,7.459592
21e48836074b419fa4f6582f,CH,Bern,College and University,Erasmus Schweiz,"Sennweg 2, 3012 Bern",46.95254,7.433682
6c81201a787c48c3de4ee0fc,CH,Bern,College and University,Hochschule für Wirtschaft und Verwaltung,"Eigerpl. 5, 3007 Bern",46.941023,7.431337
3f576f316444480ed332b526,CH,Bern,College and University,Eduswiss,"Morgartenstr. 2c, 3014 Bern",46.963403,7.462428
7a65f8d3939745cc16664793,CH,Muri b. Bern,College and University,Air Hygiene Schweiz AG,"Thunstr. 162, 3074 Muri b. Bern",46.926497,7.497173
cb60c7a5887b418241d5c189,CH,Hinterkappelen,College and University,Ethologische Station der Universität Bern,"Wohlenstr. 50a, 3032 Hinterkappelen",46.967052,7.397736
4eccba63b6344934dcf9fd96,CH,,College and University,Audimax Hauptgebäude,,46.949829,7.438699
4f44e341e4b0f1d45d41bcbc,CH,Bern,College and University,Universität Bern,"Hochschulstr. 4 (Schanzenstrasse), 3012 Bern",46.950449,7.438003
523aa33a11d28bcced3867cb,CH,Bern,College and University,Universität Bern - Uni Engehalde,"Engehaldenstr. 8, Bern",46.953937,7.439802
50f55632e4b0ff6d340986e7,CH,,College and University,International Space Science Institute (ISSI),,46.952088,7.434916
ffa8959b85be484daff15a3c,CH,Bern,Spiritual Center,Evang.-Lutherische Kirchgemeinde,"Postgasse 62, 3011 Bern",46.948791,7.453683
4d529697e0275481732cb6b6,CH,,Buddhist Temple,Zentrum für Buddhismus,,46.95356,7.460591
89bbab4602d14e152095bc21,CH,Bern,Spiritual Center,Jüdische Gemeinde Bern,"Kapellenstr. 2, 3011 Bern",46.944169,7.437676
4dab2b490437dccbd8170058,CH,Bern,Spiritual Center,Missione Cattolica Italiana,"Bovetstr. 1 (Friedeeckweg), 3007 Bern",46.941084,7.434697
4c93585f332c370413b18f64,CH,,Spiritual Center,Turkish Mosque Ostermundigen,,46.953919,7.48315
df81378227544a76dbcfa87b,CH,Ostermundigen,Spiritual Center,Pfarrei Guthirt,"Obere Zollgasse 31, Ostermundigen",46.954857,7.486669
4feaf38ae4b0eecd62c6e68f,CH,,Spiritual Center,Zentrum Europaplatz - Haus der Religionen,,46.942876,7.406087
7f3eca6ae74548b622118cf3,CH,Zollikofen,Spiritual Center,Evang.-ref. Kirchgemeinde,"Lindenweg 3, 3052 Zollikofen",46.996158,7.451938
3d8cc487c62142ef7ac7e74d,CH,Kirchlindach,Spiritual Center,Ref. Pfarramt,"Lindachstr. 20, 3038 Kirchlindach",46.999553,7.414742
d83039fbc79841ab1c11bf74,CH,Worb,Spiritual Center,Christliche Ostmission,"Bodengasse 14, 3076 Worb",46.93493,7.557402
4ca8a39f76d3a09390a4176b,CH,Bern,Church,Berner Münster,"Münsterplatz 1, 3011 Bern",46.947216,7.451191
091435b8313c4dfd7a3ba24d,CH,Bern,Spiritual Center,Münsterplatz,Bern,46.947253,7.451045
02a98c7ccdf34b04e949320f,CH,Bern,Spiritual Center,Christen,"Laubeggstr. 70, 3000 Bern",46.947977,7.46592
3fe2814dbae644481ea20855,CH,Bern,Spiritual Center,Evang.-Lutherische Kirchgemeinde,"Laubeggstr. 135, 3006 Bern",46.945445,7.470631
bb7bac560a70470b45ab0f25,CH,Stettlen,Spiritual Center,Ref. Pfarramt,"Bernstr. 84, 3066 Stettlen",46.958377,7.522927
3cb151c8728445f577bbea7c,CH,Niederwangen,Spiritual Center,"Colori d""arte, Bischoff + Zahler","Meriedweg 5, 3172 Niederwangen",46.921368,7.373829
017aea1c1233447e44312e71,CH,Worb,Spiritual Center,Christen Heinz,"Neufeldstr. 7, 3076 Worb",46.934961,7.560066
502a2d1de4b05bb92f60d3d4,CH,Bern,Church,Christkatholische Kirche St. Peter und Paul,"Rathaus Gasse, 2, Bern",46.94864,7.451879
4b8a4feaf964a520fe6732e3,CH,Bern,Church,Christkatholische Kirchgemeinde Bern,"Kramgasse 10, 3011 Bern",46.948078,7.451677
5bdb5af586bc49002c352e5a,CH,Bern,Church,Antonierkirche,"Postgasse 62, Bern",46.948739,7.453222
5d7118b14492420007d89cd5,CH,Bern,Church,Gesamtkirchliche Dienste,"Altenbergstr. 66, 3013 Bern",46.950831,7.45316
4ca8a9aed971b1f722a016e1,CH,Bern,Church,Nydeggkirche,Bern,46.948766,7.457243
4cd1c04dde0f6dcb06f77263,CH,Bern,Church,Französische Kirche,3013 Bern,46.948947,7.446546
af512b99d305478a1321459f,CH,Bern,Church,Freie Evangelische Gemeinde Bern,"Zeughausgasse 35, 3011 Bern",46.948922,7.444912
4f12f847e4b0960d0052183d,CH,Bern,Church,Vineyard Bern,"Nägeligasse 4, Bern",46.949484,7.445113
50fc1bf4e4b06b7fe5af32b1,CH,Bern,Church,RiverLife (Bern International Evangelical Church),"Zeughausgasse 35 (FEG/EEL Chapel), Bern",46.948922,7.444912
678f277054b74316b9d4d80b,CH,Bern,Church,TRiiO Beratungsstelle,"Spitalgasse 33, 3011 Bern",46.947813,7.441793
69943dea5da947732678b46f,CH,Bern,Church,Kirche des Fliegenden Spaghettimonsters Schweiz,Bern,46.948418,7.44049
4cbbc177f796ef3b0edb0080,CH,Bern,Church,Heiliggeistkirche,"Spital Gasse, 44, 3011 Bern",46.947873,7.440895
4dd781788877f1150feb2e72,CH,Bern,Church,St. Ursula's Church,"Jubiläumsplatz 2, 3005 Bern",46.939926,7.453346
2c0eac1b006f42dbad921f03,CH,Bern,Church,Röm.-kath. Pfarramt Dreifaltigkeit,"Taubenstr. 12, 3011 Bern",46.944595,7.440002
3b10ea73951d4bfb860c2e7d,CH,Bern,Church,Dreifaltigkeitskirche,"Taubenstr. 6, 3011 Bern",46.945178,7.439452
516a5dda183f2b016dd32d7b,CH,Bern,Church,Dreifaltigkeit Kirche / Church,"Taubenstr. 12, 3011 Bern",46.944595,7.440002
4e4f99df7d8bd425e49170c3,CH,Bern,Church,Basilique Trinité,Bern,46.94626,7.43855
4dd8d6337d8b322664127608,CH,Bern,Church,"ICF Bern, Office","Monbijoustr. 8, 3011 Bern",46.945393,7.436614
299a678160674a6db641b282,CH,Bern,Church,Philadelphia Church,"Sulgeneckstr. 58, 3005 Bern",46.940486,7.439836
ec4db561ddbd403e3edf472a,CH,Bern,Church,Bruder Klaus Kirche,Bern,46.941307,7.467378
13186576e40d42e6f6d8959d,CH,Bern,Church,Reformierte Kirchen Bern-Jura-Solothurn,"Bürenstr. 12, 3007 Bern",46.938759,7.4398
5ac0f048f62e0921d87280fa,CH,,Church,Markuskirche,,46.962964,7.456686
572af739498ef8fa95841297,CH,,Church,Pauluskirche (Bern),,46.952845,7.430222
4f6e1adae4b062083226d283,CH,,Church,Petruskirche,,46.936012,7.466254
62f7f010d4a62a71bd76cdbf,CH,,Church,Efg Bern,,46.94594,7.429142
5eb5ebae0f4a1c00091b1fee,CH,Bern,Church,The Church of Jesus Christ of Latter-day Saints,"Seftigenstr. 57, 3007 Bern",46.935459,7.434465
4c5da469d25320a1248ec67a,CH,Bern,Church,Friedenskirche,"Friedens Str., 3007 Bern",46.941719,7.423283
a961b75286404a57bdad5c45,CH,Ostermundigen,Church,Reformierte Kirche Ostermundigen,"Obere Zollgasse 15, 3072 Ostermundigen",46.956428,7.487711
c1149b2385684da3968f8ff6,CH,Ostermundigen,Church,"Reformierte Kirche Ostermundigen, Tagestreff Ostermundigen","Untere Zollgasse 5, 3072 Ostermundigen",46.958558,7.487504
5b94dac1b6eedb0039320110,CH,,Church,Stephanus Kirche,,46.925434,7.432938
4adcda83f964a520aa4821e3,DE,Berlin,Museum,German Historical Museum (Deutsches Historisches Museum),"Unter den Linden 2, 10117 Berlin",52.518814,13.396902
4adcda7df964a5207e4721e3,DE,Berlin,History Museum,Deutscher Dom,"Gendarmenmarkt 1-2 (Mohrenstr.), 10117 Berlin",52.51275,13.392535
4adcda83f964a520b24821e3,DE,Berlin,History Museum,Neues Museum,"Bodestr. 1-3 (Museumsinsel), 10178 Berlin",52.520091,13.397937
4adcda81f964a520574821e3,DE,Berlin,Museum,Altes Museum,"Am Lustgarten, 10178 Berlin",52.519451,13.398742
4ae44d24f964a520eb9921e3,DE,Berlin,Museum,Pergamonmuseum,"Bodestraße 1-3, 10178 Berlin",52.52095,13.396433
4adcda7cf964a520594721e3,DE,Berlin,Museum,Old National Gallery (Alte Nationalgalerie),"Bodestraße 1-3, 10178 Berlin",52.520878,13.398214
4adcda81f964a5205d4821e3,DE,Berlin,Art Museum,Museum für Islamische Kunst,"Am Kupfergraben 5, 10117 Berlin",52.52091,13.396527
4adcda81f964a5205b4821e3,DE,Berlin,Museum,Bode-Museum,"Am Kupfergruben, 10117 Berlin",52.521754,13.394927
4adcda80f964a520394821e3,DE,Berlin,Art Museum,Friedrichswerdersche Kirche,"Werderscher Markt 1, 10117 Berlin",52.515747,13.397647
4b88e416f964a5203d1232e3,DE,Berlin,Museum,Madame Tussauds Berlin,"Unter den Linden 74 (Wilhelmstr.), 10117 Berlin",52.516887,13.381704
4d6cd738125eb60c2e322c4e,DE,Berlin,History Museum,Historiale Berlin Museum,"Unter den Linden 40, 10117 Berlin",52.517111,13.386194
4adcda81f964a5207d4821e3,DE,Berlin,Museum,Museum für Kommunikation,"Leipziger Str. 16 (Mauerstr.), 10117 Berlin",52.509973,13.387103
4c522ede2543a59352b81a85,DE,Berlin,History Museum,Information Center (Ort der Information),"Cora-Berliner-Str. 1 (Hannah-Arendt-Str.), 10117 Berlin",52.51375,13.379768
4adcda83f964a520944821e3,DE,Berlin,History Museum,Topography of Terror (Topographie des Terrors),"Niederkirchnerstr. 8 (Wilhelmstr.), 10963 Berlin",52.506795,13.383668
4adcda83f964a520b04821e3,DE,Berlin,Museum,Martin-Gropius-Bau,"Niederkirchnerstraße 7, 10963 Berlin",52.50671,13.382007
4f42de33e4b0a2bdc6c470ce,DE,Berlin,Museum,Designpanoptikum - surreales Museum für industrielle Objekte,"Poststr. 7, 10178 Berlin",52.516951,13.405846
51b351ed498e028dc1003929,DE,Berlin,Museum,Tieranatomisches Theater,"Philippstr. 12/13 (Haus 3), 10115 Berlin",52.52501,13.381289
57c1d402498ec78d22fbfe34,DE,Berlin,Science Museum,Futurium,"Alexanderufer 2 (Kapelle-Ufer), 10117 Berlin",52.523921,13.374169
4ae9c897f964a52062b621e3,DE,Berlin,Museum,DDR Museum,"Karl-Liebknecht-Straße 1, 10178 Berlin",52.519367,13.402268
59eefb25d3cce84392c1ef41,DE,Berlin,History Museum,Brandenburger Tor Museum,"Pariser Platz 4a, 10117 Berlin",52.516714,13.379696
50966463e4b0385776c2f544,DE,Berlin,Museum,Filmhaus am Potsdamer Platz,"Potsdamer Str. 2, 10785 Berlin",52.509735,13.37334
4ce90079baa6a1cd5a6f316c,DE,Berlin,History Museum,Ephraim-Palais,"Poststr. 16, 10178 Berlin",52.515931,13.407271
4adcda81f964a520784821e3,DE,Berlin,Museum,Berlinische Galerie,"Alte Jakobstraße 124–128, 10969 Berlin",52.503613,13.398494
4adcda81f964a520594821e3,DE,Berlin,Science Museum,Museum für Naturkunde,"Invalidenstr. 43, 10115 Berlin",52.530115,13.379239
4bf2ce35e5eba5930fd21d90,DE,Berlin,History Museum,Deutsche Kinemathek - Museum für Film und Fernsehen,"Potsdamer Str. 2, 10785 Berlin",52.509601,13.373609
4af46110f964a520e3f121e3,DE,Berlin,Art Museum,Collegium Hungaricum Berlin,"Dorotheenstr. 12, 10117 Berlin",52.51953,13.394508
4d2de9206fc6f04d30027d45,DE,Berlin,Museum,Museum Blindenwerkstatt Otto Weidt,"Rosenthaler Str. 39, 10178 Berlin",52.524138,13.402447
4adcda83f964a520934821e3,DE,Berlin,Museum,Picture Gallery (Gemäldegalerie),"Matthäikirchplatz, 10785 Berlin",52.509103,13.365942
4adcda83f964a520ab4821e3,DE,Berlin,Museum,Hamburger Bahnhof - Museum für Gegenwart - Berlin,"Invalidenstraße 50-51, 10557 Berlin",52.52844,13.372116
4bd185f841b9ef3b7b05fce5,DE,Berlin,Science Museum,Medizinhistorisches Museum der Charité,"Charitéplatz 1 (Alexanderufer), 10117 Berlin",52.526208,13.374564
54e380ef498e9832a2b37885,DE,Berlin,Science Museum,MeMu - Menschen Museum,"Panoramastr. 1A, 10178 Berlin",52.520817,13.409023
505b835ee4b027981a3a7820,DE,Berlin,History Museum,asisi Panorama DIE MAUER Berlin,"Friedrichstr. 205, 10117 Berlin",52.507802,13.389445
4cbb18fed78f4688b59dc073,DE,Berlin,Museum,Forum Willy Brandt,"Unter den Linden 62-68 (Glinkastr.), 10117 Berlin",52.516941,13.383409
4adcda81f964a520584821e3,DE,Berlin,Museum,Jewish Museum Berlin (Jüdisches Museum Berlin),"Lindenstraße 9-14 (Am Berlin Museum), 10969 Berlin",52.502277,13.395408
50b23080e4b0c965a10c41e5,DE,Berlin,History Museum,The Kennedys,"Auguststr. 11-13, 10117 Berlin",52.526411,13.394345
53245d85498ebfbd8bccba47,DE,Berlin,History Museum,Documentation Center (Dokumentationszentrum),"Bernauer Str. 111 (Ackerstr.), 13355 Berlin",52.535323,13.389569
4b659b4bf964a52032f62ae3,DE,Berlin,Museum,German Museum of Technology (Deutsches Technikmuseum Berlin),"Trebbiner Straße 9, 10963 Berlin",52.498585,13.377577
4adcda81f964a5207e4821e3,DE,Berlin,History Museum,Märkisches Museum,"Am Köllnischen Park 5 (Wallstr.), 10179 Berlin",52.513639,13.415063
4c6fb1f4fa49a1cd4eb3a3e3,DE,Berlin,Museum,St. Nicholas' Church Museum (Museum Nikolaikirche),"Nikolaikirchplatz 4, 10178 Berlin",52.516704,13.407574
5480b06b498efa1757baa290,DE,Berlin,Museum,MAGICUM - Berlin Magic Museum,"Große Hamburger Str. 17, 10178 Berlin",52.524638,13.399092
4b991062f964a520f35e35e3,DE,Berlin,Science Museum,Science Center Spectrum,"Möckernstr. 26, 10963 Berlin",52.498245,13.379608
519a2d62498ebfecbf8e51c6,DE,Berlin,Art Museum,Zille Museum,"Propststr. 11, 10178 Berlin",52.516469,13.406193
525023f2498e908692babb8d,DE,Berlin,Art Museum,Tchoban Foundation - Museum für Architekturzeichnung,"Christinenstr. 18a (Zionskirchstr.), 10119 Berlin",52.53195,13.410144
4adcda81f964a520664821e3,DE,Berlin,Art Museum,Kunstgewerbemuseum,"Matthäikirchplatz, 10785 Berlin",52.509704,13.367074
4b3a090ef964a5206e6025e3,DE,Berlin,Art Museum,Dalí - Die Ausstellung am Potsdamer Platz,"Leipziger Platz 7, 10117 Berlin",52.508908,13.37874
4adcda81f964a5205f4821e3,DE,Berlin,Museum,Knoblauchhaus,"Poststr. 23, 10178 Berlin",52.516366,13.406978
4e5979e0d22dfba6f47550f9,DE,Berlin,Art Museum,MocTA - Museum of contemporary TrashArt,"Berliner Str. 17, 13189 Berlin",52.501894,13.365239
55fa78a1498ea1907ff6be9f,DE,Berlin,History Museum,Deutsches Spionagemuseum,"Leipziger Platz 9, 10117 Berlin",52.508786,13.379215
4adcda83f964a520ad4821e3,DE,Berlin,Art Museum,Academy of Arts (Akademie der Künste),"Hanseatenweg 10, 10557 Berlin",52.518302,13.346517
610c08bb0fcc8d431a4cad42,DE,Berlin,Museum,Bud Spencer Museum,"Unter den Linden 10, 10117 Berlin",52.517393,13.390333
4b4f646bf964a520860427e3,DE,Berlin,College and University,Wissenschaftszentrum Berlin für Sozialforschung,"Reichpietschufer 50, 10785 Berlin",52.506373,13.365257
525834c911d2881fbf32d46b,DE,Berlin,College and University,Renewables Academy,"Schönhauser Allee 10-11 (Fehrbelliner Straße), 10119 Berlin",52.530583,13.411648
4fa51219e4b0d6f4bc5eef63,DE,Berlin,College and University,BBA - Akademie der Immobilienwirtschaft,"Lützowstr. 106, 10785 Berlin",52.501342,13.368545
4eca0b7b99115348dbf16b9a,DE,Berlin,College and University,LiMA akademie Die Werkstatt,"Franz-Mehring-Platz 1, 10243 Berlin",52.512839,13.439997
52764d2b498e55ff051f50d8,DE,Berlin,College and University,Felix-Mendelssohn-Bartholdy-Gymnasium,"Eugen-Schönhaar-Str. 18, 10407 Berlin",52.536919,13.438121
57c7f40f498e504ea05666dd,DE,Berlin,College and University,SAE Institute Berlin,"Cuvrystr. 4, 10997 Berlin",52.499964,13.445893
4f44ac14e4b0d80608c6dfad,DE,Berlin,College and University,bbw Akademie für Betriebswirtschaftliche Weiterbildung GmbH,"Warschauer Str. 58a, 10243 Berlin",52.509382,13.452695
4f3141c8e4b010a3bff7c5f9,DE,Berlin,College and University,Salabanda 73,"Mühsamster. 73, 10247 Berlin",52.521068,13.454611
520c710211d2578b3ba32073,DE,Berlin,College and University,Charité Gesundheitsakademie,"Oudenarder Str. 16, 13347 Berlin",52.553343,13.360298
5002c0dfe4b042c51ce1dfae,DE,Berlin,College and University,Paul-Lincke-Grundschule,"Pieskower Weg 39, 10409 Berlin",52.541205,13.44578
4e76d9d82271ffa4e78f1e11,DE,Berlin,College and University,Gbb,"Drontheimer Str. 32, 13359 Berlin",52.559075,13.375099
4e75c73252b1c8e51998e584,DE,Berlin,College and University,Carl-Kraemer-Grundschule,"Zechliner Str. 4, 13359 Berlin",52.560996,13.382677
523f123b498ef5ec1de97851,DE,Berlin,College and University,Hermann-Boddin-Grundschule,"Boddinstr. 55, 12053 Berlin",52.480465,13.431414
4c975354f7cfa1cdeb3ccd15,DE,Berlin,College and University,Stiftung Wissenschaft und Politik,"Ludwigkirchplatz 3-4, 10719 Berlin",52.498193,13.321393
4bacd10bf964a520a00e3be3,DE,Berlin,College and University,Freie Waldorfschule am Prenzlauer Berg,"Gürtelstr. 16, 10409 Berlin",52.544414,13.453936
4ea29dc5d3e32e68680b9f57,DE,Berlin,College and University,Bildungszentrum am Antonplatz,"Bizetstr. 27 /41, 13088 Berlin",52.547624,13.452138
4ba2488bf964a520a9e937e3,DE,Berlin,College and University,BIP-Kreativitätsgrundschule,"Bizetstr. 64 (Herbert-Baum-Str.), 13088 Berlin",52.548017,13.455323
4eb8cb40991165b763ccd78b,DE,Berlin,College and University,Luise-Henriette-Schule,"Germaniastr. 4-6, 12099 Berlin",52.465557,13.390756
4c35df4b7cc0c9b6eb98f59a,DE,Berlin,College and University,Die Neue Schule,"Gieselerstr. 30a, 10713 Berlin",52.488317,13.317912
4f9e42d6e4b0b34c45280fbd,DE,Berlin,College and University,Helen Doron Early And Teen English Pankow,"Berliner Str. 118, 13187 Berlin",52.567997,13.412581
4f0f3c7de4b07f0a58ea2b2e,DE,Berlin,College and University,Birger-Forell-Grundschule,"Koblenzer Str. 22-24, 10715 Berlin",52.480573,13.322084
4e38f964483b6aaecd5e0ad7,DE,Berlin,College and University,Bildungsmarkt Vulkan GmbH - Bildungszentrum Glasower Straße Berlin,"Glasower Str. 60, 12051 Berlin",52.464592,13.44028
52f8dea4498e8f7e4a7f25fc,DE,Berlin,College and University,Bard College Berlin,"Platanenstr. 24, 13156 Berlin",52.584383,13.393643
5ba0ef0a3731ee002c3a0325,DE,Berlin,College and University,Architecture Center Ltd,"Eichborndamm 167 Gb-55, 13403 Berlin",52.572164,13.323847
504df625e4b0838e31765964,DE,Berlin,College and University,Elisabeth-Christinen-Grundschule,"Rolandstr. 35 (Lindenbergerstr.), 13156 Berlin",52.582881,13.41767
51626278e4b07b1309a66f35,DE,Berlin,College and University,Caritas Akademie Berlin,"Hertzstr. 61, 13158 Berlin",52.586438,13.355776
4f698e87e4b0f8b5d551f387,DE,Berlin,College and University,Institut für Forensische Psychiatrie,"Oranienburger Str. 285, 13437 Berlin",52.579015,13.332663
514f0a36e4b00a7e5a8855c9,DE,Berlin,College and University,Johann-A.-Zeune-Schule und Berufsfachschule Dr. Silex,"Rothenburgstr. 14, 12165 Berlin",52.455619,13.314957
525d2a0e11d2754f58128cc6,DE,Berlin,College and University,Alt-Lankwitzer-Grundschule,"Schulstr. 17-21, 12247 Berlin",52.437317,13.352234
4fdae894e4b0a629161f4105,DE,Berlin,College and University,HWR Haus 6B,"Alt-Friedrichsfelde 60, Berlin",52.508554,13.526712
51430fe0e4b0f2f1b4b10135,DE,Berlin,College and University,TOP TEGEL Beuth Hochschule für Technik,"Wittestr. 30, 13509 Berlin",52.580263,13.293869
516fe7cbe4b0fca08f6c9434,DE,Berlin,College and University,Medical School Berlin,"Calendrelli Str. 1-8, Berlin",52.438774,13.328421
523f0f61498e7f03c609e725,DE,Berlin,College and University,Vincent van Gogh-Oberschule,"Wustr.ower Str. 26, 13051 Berlin",52.567919,13.506933
52dcff6a11d23f58d414b0a0,DE,Berlin,College and University,Emil-Fischer-Schule OSZ Ernährung und Lebensmitteltechnik,"Cyclopstr. 1-5, 13437 Berlin",52.598142,13.330389
4ce4fa2d302d548140a6cb5f,DE,Berlin,Education,Sprachenzentrum der HU Berlin,"Dorotheenstr. 65, 10117 Berlin",52.518303,13.386777
5058a066e4b0a4e74d04173e,DE,Berlin,Art School,Staatliche Ballettschule Berlin und Schule für Artistik,"Erich-Weinert-Str. 103, 10409 Berlin",52.546291,13.435129
4adcda7cf964a5205e4721e3,DE,Berlin,College and University,Humboldt-Universität zu Berlin,"Unter Den Linden 6, 10099 Berlin",52.51836,13.393607
51a458c3498e1d8e3f7c39a6,DE,Berlin,College Academic Building,Institut für Philosophie,"Unter den Linden 6, Berlin",52.516967,13.394548
4e770571d22d80eb33e3ad81,DE,Berlin,College Academic Building,Universitätsgebäude am Hegelplatz HU Berlin,"Dorotheenstr. 24 (Hegelplatz), 10117 Berlin",52.519945,13.392248
4b75429cf964a5203f032ee3,DE,Berlin,College Academic Building,ESMT European School of Management & Technology GmbH,"Schloßplatz 1, 10178 Berlin",52.515414,13.401247
4b1e2b5ef964a520b41724e3,DE,Berlin,College Academic Building,Wirtschaftswissen­schaftliche Fakultät,"Spandauer Str. 1 (Anna-Louisa-Karsch-Str.), 10178 Berlin",52.521053,13.402994
50588656e4b0b66b954eef97,DE,Berlin,Elementary School,Berlin Bilingual School,"Weinstr. 1, 10249 Berlin",52.525213,13.425065
50c33cc3e4b04cc46d218abd,DE,Berlin,Art School,Schule für Bildende Kunst und Gestaltung,"Immanuelkirchstr. 4, 10405 Berlin",52.532722,13.422836
4c1bb03fb9f876b06ba77a46,DE,Berlin,College and University,Technische Universität Berlin,"Straße Des 17. Juni 135, 10623 Berlin",52.51248,13.326903
5379d090498e7942daa42724,DE,Berlin,College and University,Institute of Electronic Business,"Schlesische Str. 26, 10997 Berlin",52.49924,13.44973
571b7bac498e3e958b96d533,DE,Berlin,High School,The School of Life Berlin,"Lychener Str. 7, 10437 Berlin",52.54154,13.414856
534d4e22498eab6fc41a3600,DE,Berlin,College and University,BHT Architektur Master,"Schweden Str. 9, 13359 Berlin",52.558033,13.373676
4fd48537e4b0aa9a72b38b83,DE,Berlin,Church,Cemevi Berlin,"Waldemarstr. 20, 10999 Berlin",52.50383,13.41757
4e47e2f8d4c065cb6bb23b88,DE,Berlin,Spiritual Center,Fo-Guang-Shan Berlin,"Ackerstr. 85-86, 13355 Berlin-Wedding",52.539699,13.382184
4f36c041e4b02a70e089819e,DE,Berlin,Church,Every Nation Kirche Berlin,"Anklamer Str. 31, 10115 Berlin",52.530003,13.425272
51ab26f2498e5f0f73306286,DE,Berlin,Church,Buddhistisches Tor Berlin,"Grimmstr. 11c, 10967 Berlin",52.492666,13.412721
4da5c5bbf7b16ce044aadc22,DE,Berlin,Church,Institut St. Philipp Neri - Berlin,"Graunstr. 31, 13355 Berlin",52.545505,13.398224
4e071316a809495e6196a195,DE,Berlin,Spiritual Center,Gebetomat,"Arminiusstr. 2-4, 10551 Berlin",52.527702,13.339056
4d846e00f1e56ea82acc748a,DE,Berlin,Church,Berliner Stadtmission Diakonie Betriebs,"Lenaustr. 4, 12047 Berlin",52.489959,13.425307
4c27013d3703d13a726ba636,DE,Berlin,Church,Baptisten.Schöneberg,"Hauptstr. 125, 10827 Berlin",52.483413,13.351898
4adcda80f964a520364821e3,DE,Berlin,Church,Martin-Luther-Kirche - Martin-Luther-Kirchengemeinde,"Fuldastr. 50-51, 12045 Berlin",52.484379,13.436193
4f314a5ce4b092d58b7af322,DE,Berlin,Buddhist Temple,Bodhicharya Berlin,"Kinzigstr. 25-29, 10247 Berlin",52.512471,13.465521
4d874a8802eb5481da5667f5,DE,Berlin,Spiritual Center,Rigpa Deutschland,"Soorstr. 85, 14050 Berlin",52.51707,13.279265
784b4f888fde43da0ca605c0,DE,Berlin,Spiritual Center,"Freie Nazarethkirche, Joh. W. Matutis Pastor","Kastanienallee 123, 13158 Berlin",52.592826,13.401919
4e592ddfd4c0ba8c119a51b9,DE,Berlin,Spiritual Center,Große Landesloge,"Peter-Lenne-Str. 1, 14195 Berlin",52.463373,13.295411
9e44440b4d0049a510244865,DE,Berlin,Spiritual Center,Mediation In der Kirche Kathrin Spremberg,"Grüner Weg 39A, 12359 Berlin",52.441616,13.455837
534075794a354c9c5c4e942c,DE,Berlin,Spiritual Center,Kirche Berlin - Kirchengemeinde Am Seggeluchbecken,"Finsterwalder Str. 66-68, 13435 Berlin",52.602815,13.348861
4d60f2631ee8721ee0d3b021,DE,Berlin,Church,St. Hedwigs-Kathedrale,"Hinter der Katholischen Kirche 3, 10117 Berlin",52.515831,13.394894
4adcda7ef964a520ba4721e3,DE,Berlin,Church,Franz. Friedrichstadtkirche,"Gendarmenmarkt 5 (Französische Str.), 10117 Berlin",52.51438,13.392191
4adcda7ef964a520c54721e3,DE,Berlin,Church,Marienkirche,"Karl-Liebknecht-Str. 8, 10178 Berlin",52.520604,13.407174
4b33af2ef964a520ce1c25e3,DE,Berlin,Church,Zionskirche,"Zionskirchstr. 32 (Veteranenstr.), 10119 Berlin",52.534589,13.40393
4adcda80f964a520274821e3,DE,Berlin,Church,Gethsemane Church (Gethsemanekirche),"Stargarder Str. 77, 10437 Berlin",52.547681,13.415788
4da07c39e8a6721ebda038a5,DE,Berlin,Church,Heilig-Kreuz-Kirche,"Zossener Str. 65, 10961 Berlin",52.49641,13.395703
50d8a8ce498ee282a5e062ed,DE,Berlin,Temple,Ilê Obá Silekê (Fórum Brasil),"Möckernstr. 72, 10965 Berlin",52.490049,13.378889
4adcda80f964a520394821e3,DE,Berlin,Art Museum,Friedrichswerdersche Kirche,"Werderscher Markt 1, 10117 Berlin",52.515747,13.397647
4e59450c8877c8a76de38071,DE,Berlin,Mosque,Tekke-i Kadiriyye Mescidi,"Karl-Marx-Str. 179, 12043 Berlin",52.474323,13.440528
374091b5381044be9e21e694,DE,Berlin,Spiritual Center,Zwinglikirche - Pfarrsprengel St. Markus-Boxhagen-Stralau,"Rudolfstr.ßae 14, 10245 Berlin",52.503649,13.454447
fa196cb75f5e4bc6f8006a5b,DE,Berlin,Spiritual Center,Chinesische Allianz Kirche Berlin,"Blissestr. 2, 10713 Berlin",52.486041,13.320159
4c6fb1f4fa49a1cd4eb3a3e3,DE,Berlin,Museum,St. Nicholas' Church Museum (Museum Nikolaikirche),"Nikolaikirchplatz 4, 10178 Berlin",52.516704,13.407574
5cbc51b5b6eedb002cdab644,DE,Berlin,Church,Baptismal and Matrimonial Church (Tauf- und Traukirche),"Am Lustgarten 1, 10178 Berlin",52.518903,13.401551
4c0c2f7c4d49ef3b270b5c6a,DE,Berlin,Church,Berlin International Church,"Blissestr. 2 (Berlinerstraße), 10713 Berlin",52.524947,13.395078
4adcda80f964a520314821e3,DE,Berlin,Church,Sophienkirche,"Große Hamburger Str. 31, 10115 Berlin",52.525443,13.399912
5c3ed40b7c891c002d16eb90,DE,Berlin,Church,Akademiekirche St. Thomas von Aquin,"Hannoversche Str. 5, 10115 Berlin",52.527414,13.384421
529a23bc11d2702a785e71a0,DE,Berlin,Church,Kindertagesstätte St. Clemens,"Str.esemannstr. 66, 10963 Berlin",52.50302,13.384475
4e594478b61c4aaa3dfb66c3,DE,Berlin,Church,St. Matthäus-Kirche,"Matthäikirchplatz 1, 10785 Berlin",52.508014,13.367411
5027cc86e4b0e4d9608dc93b,DE,Berlin,Church,St. Jacobikirche,"Oranienstr. 132, 10969 Berlin",52.504608,13.406372
4f60913de4b06b55137c681a,DE,Berlin,Church,Chapel of Reconciliation (Kapelle der Versöhnung),"Bernauer Str. 111 (Hussitenstr.), 13355 Berlin",52.535868,13.391911
59fec99a18d43b6ac79816e6,DE,Berlin,Church,Neuapostolische Kirche Berlin-Humboldthain,"Hussitenstr. 20/21, 13355 Berlin",52.539372,13.38589
4e88300f4690fc993e42d1e0,DE,Berlin,Church,Stadtkloster Segen,"Schönhauser Allee 161, 10435 Berlin",52.536187,13.411998
4adcda7df964a520604721e3,DE,Berlin,Church,American Church,"Bülowstr. 71/72, 10783 Berlin",52.496736,13.366463
4cb458ddb4b0a35d486166ce,DE,Berlin,Church,Zwölf-Apostel-Kirche,"An der Apostelkirche 1 (Kurfürstenstraße), 10783 Berlin",52.500597,13.358034
4adcda80f964a520324821e3,DE,Berlin,Church,Immanuelkirche,"Immanuelkirchstr. 1 (Prenzlauer Allee), 10405 Berlin",52.533288,13.421394
51096f4fe4b0a5846e7e40e5,DE,Berlin,Church,Kapelle am Urban,"Grimmstr. 10, 10967 Berlin",52.493186,13.412992
4adcda10f964a5209b3521e3,FR,Paris,Museum,Musée National du Moyen Age (Musée de Cluny | Musée national du Moyen-Âge),"6 place Paul Painlevé (Rue de Cluny), 75005 Paris",48.850597,2.343759
4bae535af964a520f5a23be3,FR,Paris,Art Museum,Maison Européenne de la Photographie,"5-7 rue de Fourcy, 4e, 75004 Paris",48.855139,2.358954
4adcda0ef964a520353521e3,FR,Paris,Museum,Monnaie de Paris,"11 quai de Conti, 6e, 75006 Paris",48.856737,2.339192
4adcda0af964a520623421e3,FR,Paris,Art Museum,Pompidou Centre – National Museum of Modern Art (Centre Pompidou – Musée National d'Art Moderne),"place Georges Pompidou (Rue Beaubourg), 75004 Paris",48.86067750938799,2.3524367809295654
4adcda0ff964a520673521e3,FR,Paris,Museum,Institut du Monde Arabe,"1 rue des Fossés-Saint-Bernard, place Mohammed-V, 75005 Paris",48.849113,2.356847
4b93c3c6f964a5207c5034e3,FR,Paris,Art Museum,Pavillon de l'Arsenal,"21 boulevard Morland, 4e, 75004 Paris",48.850587,2.3623
4adcda10f964a520af3521e3,FR,Paris,Museum,The Louvre (Musée du Louvre),"99 rue de Rivoli (Place du Carrousel), 75001 Paris",48.860904,2.336351
5abd0d073fcee827975e2fd7,FR,Paris,Museum,Musée de la Monnaie de Paris (Musée du 11 Conti),"11 quai de Conti, 75006 Paris",48.856681,2.339158
5b6dae07e727c40024de8391,FR,Paris,Museum,Pavillon de l'Horloge,"Musée du Louvre, 75001 Paris",48.860584,2.33765
4ebeb7f2e3005ff9293a8771,FR,Paris,Art Museum,Galerie Sud,"Place Georges Pompidou, 75004 Paris",48.860488,2.352391
600af5ddd49d6e3b5b1abf05,FR,Paris,Arts and Entertainment,Bourse de Commerce – Pinault Collection,"2 rue de Viarmes, 75001 Paris",48.862918,2.342423
4adcda0ff964a520713521e3,FR,Paris,Museum,Musée de la chasse et de la nature,"62 rue des Archives, 75003 Paris",48.861248,2.358583
4adcda0ef964a520533521e3,FR,Paris,Museum,Musée Carnavalet,"23 rue de Sévigné (Rue des Francs-Bourgeois), 75003 Paris",48.85733,2.362478
4adcda10f964a5208c3521e3,FR,Paris,Museum,Musée du Luxembourg,"19 rue de Vaugirard, 75006 Paris",48.848595,2.334021
4ff56ef2e4b00ee3e54a74ef,FR,Paris,Science Museum,Musée Curie,"11 rue Pierre et Marie Curie, 75005 Paris",48.844312,2.344649
50590b16e4b0fbd8281f17d3,FR,Paris,Museum,Galerie de Minéralogie et de Géologie,"36 rue Geoffroy-St-Hilaire, 5e, 75005 Paris",48.841653,2.357055
4adcda0ef964a5204f3521e3,FR,Paris,Museum,Musée National Picasso (Musée Picasso),"5 rue de Thorigny (Hôtel Salé), 75003 Paris",48.85987,2.362232
588ba9a9fc5a5f18a36a2a05,FR,Paris,Art Museum,Pavillon des Sessions – Arts d'Afrique,"Musée du Louvre, 75001 Paris",48.860597,2.332241
4adcda11f964a520d23521e3,FR,Paris,Museum,Musée d'art et d'histoire du judaïsme (Musée d'Art et d'Histoire du Judaïsme),"71 rue du Temple, 75003 Paris",48.861122,2.355425
4adcda0ff964a520683521e3,FR,Paris,Science Museum,Grande Galerie de l'Evolution (Grande Galerie de l'évolution),"36 rue Geoffroy-St-Hilaire, 5e, 75005 Paris",48.842009,2.35641
4cd5555fa5b34688a1248d50,FR,Paris,Museum,Musée des Arts Décoratifs,"107 rue de Rivoli, 75001 Paris",48.863205,2.332895
4bdd3271f219c9b624321210,FR,Paris,History Museum,Galerie de Paléontologie et d'Anatomie Comparée (Galerie de Paléontologie et d'Anatomie comparée),"2 rue Buffon, 5e, 75005 Paris",48.843156,2.363212
4b6eb7def964a520c0c72ce3,FR,Paris,Museum,Musée Cognacq-Jay,"8 rue Elzevir, 75003 Paris",48.85813,2.361654
4adcda0af964a5203a3421e3,FR,Paris,Museum,Musée des Arts et Métiers,"60 rue Réaumur, 75003 Paris",48.866726,2.35533
4adcda10f964a5208b3521e3,FR,Paris,Museum,Orsay Museum (Musée d'Orsay),"1 rue de la Légion d'Honneur (Quai Anatole France), 75007 Paris",48.859974,2.326519
5666c960498eebab648cbfe3,FR,Paris,Museum,Les Caves du Louvre,"52 rue de l'Arbre Sec, 75001 Paris",48.860975,2.342879
5162ec2ab0edf533dc6b7e56,FR,Paris,Museum,Cabinet d'Histoire du Jardin des Plantes,"57 rue Cuvier, 75005 Paris",48.844288,2.356158
4adcda0df964a5201f3521e3,FR,Paris,History Museum,Crypte archéologique du parvis Notre-Dame (Crypte Archéologique du Parvis Notre-Dame),"1 place du Parvis Notre Dame, 4e, 75004 Paris",48.853761,2.347796
4adcda10f964a520983521e3,FR,Paris,Museum,Musée de l'Orangerie,"Jardin des Tuileries (Place de la Concorde), 75001 Paris",48.863773,2.322716
4adcda0ff964a520763521e3,FR,Paris,Art Museum,Fondation Cartier pour l'Art Contemporain,"261 boulevard Raspail 75014, 75014 Paris",48.83741,2.331781
4b8134ddf964a5206f9a30e3,FR,Paris,Art Museum,Musée Maillol,"59-61 rue de Grenelle, 75007 Paris",48.854795,2.324939
5b2e2b2da30619002cdb8a5c,FR,Paris,Art Museum,Galerie de l'Art Nouveau,"1 rue de la Légion d'Honneur, 75007 Paris",48.860366,2.325218
4be6d2d6d4f7c9b6f1132720,FR,Paris,Art Museum,Jeu de Paume,"1 place de la Concorde, 1er (Rue de Rivoli), 75008 Paris",48.865821,2.323963
4b672eadf964a520e33f2be3,FR,Paris,Museum,Manufacture des Gobelins,"42 avenue des Gobelins, 75013 Paris",48.834832,2.352834
4edd1bf629c2b9122ba4eecc,FR,Paris,Art Gallery,Passage de Retz,"9 rue Charlot, 75003 Paris",48.861636,2.360572
4adcda10f964a520813521e3,FR,Paris,Art Museum,Musée Zadkine,"100 bis, rue d'Assas, 75006 Paris",48.843047,2.333648
525dba2011d2c6cc6c4fda9a,FR,Paris,Science Museum,Galerie de Botanique,"18 rue Buffon, 75005 Paris",48.842494,2.360316
4adcda10f964a520b13521e3,FR,Paris,Museum,Rodin Museum (Musée Rodin),"79 rue de Varenne (Boulevard des Invalides), 75007 Paris",48.85531,2.315888
4df33f21b61cbd3ec01a71a3,FR,Paris,Museum,Le Musee Gourmand Chocolat Choco Story le Musee Gourmand du Chocolat,"28 boulevard de Bonne Nouvelle, 75010 Paris",48.870639,2.35003
4b522c78f964a520676d27e3,FR,Paris,Museum,Observatoire de Paris,"61 avenue de l'Observatoire, 75014 Paris",48.836452,2.33636
4adcda0ef964a520523521e3,FR,Paris,Museum,Musée de la Mode et du Textile,"107 rue de Rivoli (Les Arts Décoratifs), 75001 Paris",48.863203,2.333304
4b975b14f964a520b00035e3,FR,Paris,Science Museum,Institut Océanographique,"195 rue Saint Jacques, 75005 Paris",48.844432,2.342227
4b4861e0f964a520804c26e3,FR,Paris,Art Museum,Musée Bourdelle,"18 rue Antoine Bourdelle, 15e, 75015 Paris",48.842976,2.318554
5ad06f59febf316801ad0305,FR,Paris,Art Museum,Atelier des Lumières,"38 rue Saint-Maur, Paris",48.861532,2.380981
4adcda0ff964a520643521e3,FR,Paris,Art Museum,Musée National Eugène Delacroix,"6 rue de Furstenberg, 6e, 75006 Paris",48.854471,2.335754
4adcda10f964a520ab3521e3,FR,Paris,Museum,Musée de l'Armée,"129 rue de Grenelle (129 rue de Grenelle), 75007 Paris",48.85591,2.312614
4adcda0ff964a520783521e3,FR,Paris,History Museum,Musée de la Légion d'Honneur,"2 rue de la Légion d'Honneur, 75007 Paris",48.860293,2.324743
507eda44e4b0643e8c480022,FR,Paris,Art Gallery,The Museum of Everything,"14 boulevard Raspail, 75006 Paris",48.85423,2.325801
4bcb19da3740b713fec26165,FR,Paris,Art Museum,Musée en Herbe,"21 rue Hérold, 75001 Paris",48.865131,2.341872
4bc5c4dc693695212e768488,FR,Paris,History Museum,Musée Grévin,"10 boulevard Montmartre, 9e, 75009 Paris",48.871794,2.342213
4bd93853e914a593e2fd55fa,FR,Paris,College and University,Institut National d'Histoire de l'Art,"2 rue Vivienne, 75002 Paris",48.866479,2.338817
4b9f63b0f964a520d11f37e3,FR,Paris,College and University,Institut du Monde Anglophone,"6 rue de l'École de Médecine, 75005 Paris",48.850373,2.342216
4c8df01ed68c6dcb7abbf7a1,FR,Paris,College and University,École Nationale Supérieure d'Architecture Paris-Malaquais,"14 rue Bonaparte, 75006 Paris",48.856798,2.333981
4f55cbade4b05b4bc3a9c9df,FR,Paris,College and University,Institut Catholique de Paris,"21 rue d'Assas, 75006 Paris",48.848324,2.329362
4b0ea778f964a5205a5923e3,FR,Paris,College and University,Conservatoire National des Arts et Métiers,"292 rue Saint-Martin, 75003 Paris",48.866707,2.355281
4f1a7feae4b03543a04dc12c,FR,Paris,College and University,Institut National de Podologie,"6 rue Sainte Anne, 6 A 8, 75001 Paris",48.865519,2.33531
4cbec7709ca85481c56cb216,FR,Paris,College and University,Centre Sèvres,"35 bis, rue de Sèvres (Boulevard Raspail), 75006 Paris",48.85069,2.325893
4b485a7af964a5200e4c26e3,FR,Paris,College and University,Institut Japonais,"1-3 rue Lulli (Rue Rameau), 75002 Paris",48.868026,2.336658
4c5d68a97735c9b68be18e72,FR,Paris,College and University,Wall Street Institute République,"13 place de la République, 75003 Paris",48.866981,2.363384
4ed09ab4775bbb5f3321c0e2,FR,Paris,College and University,Ifocop,"39 rue Saint Sebastien, 37-39, 75011 Paris",48.861731,2.371038
4e54f4aac65b9614d8ed0a3e,FR,Paris,College and University,University of London Institute in Paris,"9-11 rue de Constantine, 75007 Paris",48.860121,2.315175
4dee34a818385379de562006,FR,Paris,Elementary School,College et Ecole Saint Vincent de Paul,"6 rue de Rocroy, 75010 Paris",48.878953,2.350771
0d342c9d9216497e4c9253af,FR,Département de Paris,College and University,Crous,"124 boulevard de Ménilmontant, 75020 Département de Paris",48.865976,2.384453
4b2bd752f964a5201ebc24e3,FR,Paris,College and University,Efap,"61-63 rue Pierre Charron, 75008 Paris",48.869948,2.303488
4b80088cf964a520684c30e3,FR,Paris,College and University,Cité Internationale Universitaire,"27 boulevard Jourdan, 75014 Paris",48.819894,2.338111
42db68dc466c4941b8b92c80,FR,Montrouge,College and University,Lignes et Formations,"85-87 rue Gabriel Péri, 92120 Montrouge",48.819241,2.31416
4c811c74d22d199ca955dc93,FR,Paris,College and University,Saint Louis de Gonzague,"12 rue Benjamin Franklin, 75116 Paris",48.859505,2.285461
4c84beb6dc018cfa5e02e36c,FR,Paris,College and University,École nationale supérieure d'architecture de Paris-La Villette,"144 avenue de Flandre, 75019 Paris",48.893631,2.381112
4b706831f964a52079182de3,FR,Malakoff,College and University,Conservatoire de Malakoff,"66 bld Gabriel Peri, 92000 Malakoff",48.819094,2.299416
56b0ebdb498e8704e2530a11,FR,Paris,College and University,Grenoble Ecole de Management,"70 rue du Ranelagh, 75016 Paris",48.855051,2.272611
af1849fb56fb4f8b39915803,FR,Arcueil,College and University,Enseignement Militaire Supérieur,"24 avenue Prieur de la Côte d'Or, 94110 Arcueil",48.805495,2.323378
4ba660f1f964a520034c39e3,FR,Issy les Moulineaux,College and University,La Maison des Hauts d'Issy,"16 rue de l'Abbé Derry, 92130 Issy les Moulineaux",48.823072,2.280021
4e8d51f69a524ea86d236949,FR,Boulogne-Billancourt,College and University,Ebs Campus Boulogne,"rue des Peupliers, 92100 Boulogne-Billancourt",48.835982,2.253251
4ef9b0169a52c90843099891,FR,Boulogne-Billancourt,College and University,ISRP,"19-25 rue Gallieni, 92100 Boulogne-Billancourt",48.837764,2.250199
61e120f9ff9b1232fabea276,FR,Suresnes,College and University,Skema Business School,"5 quai Marcel Dassault, 92150 Suresnes",48.860383,2.22351
4dd16011ae603b786d753158,FR,Chevilly-Larue,Middle School,Collège Liberté,"4 rue de Verdun, 94550 Chevilly-Larue",48.77119,2.348585
4bdf13ef6198c9b675e015ff,FR,Suresnes,College and University,Ecole Primaire Publique Jules Ferry,"12 rue Jules Ferry, 92150 Suresnes",48.869285,2.225102
4ce6f4ffb9975481164df344,FR,Suresnes,College and University,Ecole Robert Pontillon,"38 rue Voltaire (Rue du Capitaine Ferber), 92150 Suresnes",48.878971,2.225877
4bfd829fe9309521cf1362ab,FR,Suresnes,College and University,École Primaire Publique Marcel Mouloudji,"13 rue de Sèvres, 92150 Suresnes",48.866072,2.221266
4c1f517ffcf8c9b6af6dae0b,FR,Sceaux,College and University,Iut Paris-sud de Sceaux,"8 avenue Cauchy, 92330 Sceaux",48.776012,2.288282
4d8480e25ad3a09379acd0fd,FR,Meudon,College and University,Lycée Rabelais,"6 rue Georges Langrognet, 92190 Meudon",48.800883,2.239619
4d4a8141f53c8cfad1a42347,FR,Bobigny,College and University,Tribunal de Grande Instance,"173 avenue Paul Vaillant-Couturier, 93000 Bobigny",48.909215,2.449891
842384a3e028477ab6f4d0de,FR,Paris,College and University,Faculté de Médecine Paris V René Descartes,"rue Hautefeuille, 75005 Paris",48.851468,2.340987
b414db7987de41c0bcec6a3d,FR,Paris,College and University,Faculté de Droit,"12 place du Panthéon, 75005 Paris",48.847024,2.344314
f3de80a13272427ea1e096f0,FR,Paris,College and University,Audencia Business School,"95 rue Falguière, 75015 Paris",48.838215,2.311457
4adcda09f964a520143421e3,FR,Paris,College and University,Université Paris IV Sorbonne,"1 rue Victor Cousin, Paris 5, 75005 Paris",48.848901,2.34356
4b93a7d9f964a520cf4b34e3,FR,Paris,College and University,Université René Descartes,"45 rue des Saints-Pères, 75006 Paris",48.855507,2.331737
4b851428f964a5201e4b31e3,FR,Paris,University,Sciences Po,"13 rue de l'Université, 75007 Paris",48.856849,2.329883
4d2c6a4355a8b60c23c9efc0,FR,Paris,College and University,UFR Cinéma et Audiovisuelle,"Paris III Sorbonne Nouvelle, 75005 Paris",48.840631,2.353339
4ce2abd469136dcb6cd6f0e6,FR,Paris,Education,Association de l'École Doctorale de Sciences Po,"199 boulevard Saint Germain, 75007 Paris",48.855104,2.327191
4b725da8f964a520f3782de3,FR,Paris,University,Universite Paris Iii Sorbonne Nouvelle Uer Litt Gen Universite Pari,"13 rue Santeuil, 75005 Paris",48.839731,2.353997
4e7ae7772271acb1fa91ade5,FR,Paris,University,Eemi,"28 place de la Bourse (Palais Brongniart), 75002 Paris",48.869078,2.341081
4bda8b322a3a0f477169abb6,FR,Paris,College Academic Building,Ipesup,"9 rue de Platre, 75002 Paris",48.859334,2.354875
4ffc0697e4b0494f64c2e19e,FR,Paris,College and University,Institut Français de la Mode (Institut Français de la Mode (IFM)),"36 quai d'Austerlitz, 75013 Paris",48.841221,2.369261
504efb61e4b0e8d61c269d02,FR,Paris,College Academic Building,UPMC,"4 place Jussieu, 75005 Paris",48.846295,2.355913
4adcda0bf964a520a43421e3,FR,Paris,Spiritual Center,Église Réformée de la Bastille,"7 bis rue du Pasteur Wagner, 75011 Paris",48.85477,2.36975
4adcda0bf964a520953421e3,FR,Paris,Spiritual Center,Église Saint-Marcel,"82 boulevard de l'Hôpital, 75013 Paris",48.837226,2.359444
4adcda0bf964a520843421e3,FR,Paris,Spiritual Center,Temple de Pentemont,"106 rue de Grenelle, 75007 Paris",48.85653,2.322033
4e353c21d22d86185a69b6f4,FR,Paris,Spiritual Center,Thunderdome,"34 rue Bréguet, 75011 Paris",48.857972,2.375122
4adcda0cf964a520c93421e3,FR,Paris,Church,Chapelle de l'Agneau de Dieu,"2 place Henri Frenay, 75012 Paris",48.844557,2.377648
4d2f454279dd6ea8945390d3,FR,Paris,Cultural Center,Grande Loge Féminine France,"4 Cité du Couvent (101 rue de Charonne), 75011 Paris",48.854784,2.383939
5076a0cde4b0de8c8af1a9a8,FR,Paris,Spiritual Center,Folk,"106 rue du chemin Vert, 75011 Paris",48.861204,2.382331
4bfe56ebb68d0f47d000ea57,FR,Paris,Spiritual Center,Conférence des Évêques de France,"58 avenue de Breteuil, 75007 Paris",48.849332,2.311307
5095439ee4b05f8bb5ba58bf,FR,Paris,Spiritual Center,Zen Dojo de Paris,"175 rue de Tolbiac, 75013 Paris",48.82585,2.353151
4e86e68d93ad25309dd9a6e9,FR,Paris,Music School,Alesia Jeunes,"16 rue du Moulin Vert, 75014 Paris",48.829699,2.324532
4dce68ef922e8ac424822ab6,FR,Paris,Spiritual Center,Couvent de bourge,"1 rue Edgar Poe, 75019 Paris",48.876991,2.377966
4ec26c966d8654fb643fdec4,FR,Paris,Spiritual Center,Maverick's,"rue Lacaze, 75014 Paris",48.824912,2.330145
58c590bf01f0777d3fe17ff0,FR,Paris,Church,Russian Orthodox Spiritual and Cultural Centre (Centre Spirituel et Culturel Orthodoxe Russe),"1 quai Branly, 75007 Paris",48.862103,2.300974
4ef6ee4e2c5b0445007b9708,FR,Paris,Spiritual Center,Compagnie de Jésus,"7 rue Beudant, 75017 Paris",48.882484,2.319519
5c61bc5533e118002ced2319,FR,Bagnolet,Spiritual Center,Cesak,"26 avenue de la République, 93170 Bagnolet",48.862602,2.415863
56b9d79a498edc99be3632fd,FR,Paris,Spiritual Center,Maison religieuse l'Assomption,"17 rue de l'Assamption, 75016 Paris",48.85271,2.276253
4adcda0cf964a520be3421e3,FR,Paris,Church,Église Réformée d'Auteuil,"53 rue Erlanger, 75016 Paris",48.844558,2.260156
4adcda0cf964a520c73421e3,FR,Paris,Spiritual Center,Église Réformée de Neuilly sur Seine,"18 boulevard d'Inkermann, 92200 Paris",48.887255,2.274233
4adcda09f964a520e83321e3,FR,Paris,Church,Cathedral of Notre-Dame de Paris (Cathédrale Notre-Dame de Paris),"6 Parvis Notre-Dame (Place Jean-Paul II), 75004 Paris",48.852974,2.349911
4adcda0bf964a5208e3421e3,FR,Paris,Church,Paroisse de l'Immaculée Conception,"63 rue du Dôme, 92100 Paris",48.831459,2.248109
4adcda0bf964a5209d3421e3,FR,Courbevoie,Church,Église Evangelique,"40 rue du 22 Septembre, 92400 Courbevoie",48.904098,2.270709
fbab345178714553f84f3de0,FR,Hauts-de-Seine,Spiritual Center,Villeneuve-la-Garenne Central Mosque,"12 rue Arthur Guillemain, 8-10 Allé Arthur GUILLEMAIN, 92390 Hauts-de-Seine",48.930322,2.332786
4e4943b214959d51c186d649,FR,Meudon,Spiritual Center,Association Diocesaine de Nanterre,"4 rue Hélène Loiret, 92190 Meudon",48.819661,2.239864
4c4a18b4712ac928d662f56a,FR,Clamart,Spiritual Center,Centre Spirituel Manrese,"5 rue Fauveau, 92140 Clamart",48.798359,2.258898
4adcda09f964a520173421e3,FR,Paris,Church,Church of Saint-Germain-l'Auxerrois (Église Saint-Germain l'Auxerrois),"2 place du Louvre, 1er, 75001 Paris",48.859482,2.341028
539f3cac498e06f4cc9d7297,FR,La Garenne-Colombes,Spiritual Center,Maison Paroissial de la Garenne Colombes,"5 rue Voltaire (Voltaire), 92250 La Garenne Colombes",48.908427,2.247317
4adcda09f964a520013421e3,FR,Paris,Church,Madeleine Church (Église de la Madeleine),"1 place de la Concorde, 75001 Paris",48.865825,2.324052
4bccc4e7937ca59381baab92,FR,Paris,Spiritual Center,Sacré-Cœur Basilica (Basilique du Sacré-Cœur),"35 rue du Chevalier de la Barre, 75018 Paris",48.886776,2.343176
4adcda0bf964a520aa3421e3,FR,Paris,Temple,Temple de Luxembourg,"58 rue Madame, 75006 Paris",48.847429,2.331487
4ce825ad948f224b579bee5d,FR,Paris,Church,Église Saint Julien le Pauvre,"79 rue Galande, 75005 Paris",48.85207,2.346427
4bd1d6a841b9ef3b2ab5fce5,FR,Paris,Church,Église Saint-Nicolas des Champs,"254 rue Saint-Martin, 75003 Paris",48.865456,2.353942
4bd24dc1f0f046aac8328ed7,FR,Paris,Spiritual Center,Association Sefer,"240 rue de Rivoli, 75001 Paris",48.865952,2.32585
4cc2e10cb2beb1f7459d124c,FR,Neuilly-sur-Seine,Church,Église Saint Pierre,"boulevard Jean Mermoz, 92200 Neuilly-sur-Seine",48.884183,2.271652
bfcd7d7fa86947b138cbff34,FR,Paris,Spiritual Center,Église Evangélique,"20 rue Lebouteux, 75017 Paris",48.883125,2.315174
26ae9df35c1d43924dd11eb9,FR,,Spiritual Center,Paroisse Saint Joseph,"Eglise Saint Joseph, 5 boulevard Charles de Gaulle, 92390",48.936486,2.331618
4c1134176b7e2d7f7fe12835,FR,Paris,Spiritual Center,Temple Protestant de l'Oratoire du Louvre,"145 rue Saint-Honoré, 75001 Paris",48.861733,2.34007
4adcda09f964a5201a3421e3,FR,Paris,Church,American Church In Paris,"65 quai d'Orsay, 75007 Paris",48.86223,2.306729
4b530376f964a520958c27e3,FR,Paris,Church,Église Saint Nicolas du Chardonnet,"23 rue des Bernardins, 75005 Paris",48.849281,2.350241
4c87af20d8086dcbfd2ba452,FR,Paris,Church,Paroisse de Saint-Séverin,"3 rue des Prêtres Saint-Séverin, 75005 Paris",48.851776,2.345207
